OBJECT_NAME,OBJECT_ID,EPOCH,MEAN_MOTION,ECCENTRICITY,INCLINATION,RA_OF_ASC_NODE,ARG_OF_PERICENTER,MEAN_ANOMALY,EPHEMERIS_TYPE,CLASSIFICATION_TYPE,NORAD_CAT_ID,ELEMENT_SET_NO,REV_AT_EPOCH,BSTAR,MEAN_MOTION_DOT,MEAN_MOTION_DDOT
ONEWEB-0423,2022-012F,2026-06-18T19:34:03.298080,13.17650637,.0001909,87.9133,5.5399,85.0865,275.0484,0,U,51627,999,21391,-.48258E-4,-.6E-7,0
ONEWEB-0425,2022-012G,2026-06-18T20:44:15.707616,13.10262085,.0002168,87.8826,35.9332,75.3292,284.8076,0,U,51628,999,20954,-.12513E-1,-.4346E-4,0
ONEWEB-0428,2022-012H,2026-06-18T14:45:29.395584,13.10340270,.0001883,87.8845,35.9890,81.7885,278.3456,0,U,51629,999,20947,-.74912E-2,-.26E-4,0
ONEWEB-0431,2022-012J,2026-06-18T21:21:49.434336,13.10415148,.0001465,87.8853,35.9256,105.3734,254.7555,0,U,51630,999,20956,.1259E-1,.4412E-4,0
ONEWEB-0434,2022-012K,2026-06-18T20:49:16.389120,13.10262776,.000264,87.8831,35.9568,69.3626,290.7785,0,U,51631,999,20954,-.21621E-1,-.7517E-4,0
ONEWEB-0435,2022-012L,2026-06-18T21:00:20.903616,13.10473869,.0001392,87.8823,35.9425,84.7931,275.3355,0,U,51632,999,20953,.12229E-1,.429E-4,0
ONEWEB-0436,2022-012M,2026-06-18T12:04:30.392256,13.17648926,.0001644,87.9140,5.5839,90.7500,269.3820,0,U,51633,999,21385,-.15679E-3,-.48E-6,0
ONEWEB-0438,2022-012N,2026-06-18T20:37:02.365824,13.10291374,.000185,87.8826,35.9480,79.5574,280.5761,0,U,51634,999,20956,-.1747E-1,-.6075E-4,0
ONEWEB-0439,2022-012P,2026-06-18T20:41:52.177344,13.10270179,.0001931,87.8824,35.9349,81.2072,278.9274,0,U,51635,999,20954,-.12583E-1,-.4371E-4,0
ONEWEB-0442,2022-012Q,2026-06-18T11:53:34.789920,13.17649145,.0002388,87.9130,5.6181,81.3877,278.7525,0,U,51636,999,21384,-.10037E-3,-.26E-6,0
ONEWEB-0443,2022-012R,2026-06-18T19:38:54.142944,13.17649997,.0001723,87.9131,5.5547,77.2586,282.8738,0,U,51637,999,21393,.13263E-4,.18E-6,0
ONEWEB-0444,2022-012S,2026-06-18T20:27:25.034976,13.10303274,.0001781,87.8830,35.9355,75.2572,284.8753,0,U,51638,999,20955,-.63664E-2,-.2207E-4,0
ONEWEB-0445,2022-012T,2026-06-18T20:57:56.210400,13.10482352,.0001988,87.8835,35.9202,88.6691,271.4664,0,U,51639,999,20956,.11883E-1,.4169E-4,0
ONEWEB-0446,2022-012U,2026-06-18T14:55:06.867264,13.10317074,.0001874,87.8834,35.9982,86.5158,273.6184,0,U,51640,999,20951,-.11012E-1,-.3827E-4,0
ONEWEB-0448,2022-012V,2026-06-18T20:32:13.867584,13.10283129,.0001827,87.8820,35.9478,83.4416,276.6919,0,U,51641,999,20951,-.51599E-2,-.1786E-4,0
ONEWEB-0449,2022-012W,2026-06-18T20:39:27.620640,13.10266764,.000211,87.8829,35.9327,74.0934,286.0426,0,U,51642,999,20952,-.81827E-2,-.2838E-4,0
ONEWEB-0451,2022-012X,2026-06-18T19:17:03.314112,13.17649551,.0001995,87.9143,5.5217,82.5481,277.5877,0,U,51643,999,21387,.34736E-5,.14E-6,0
ONEWEB-0452,2022-012Y,2026-06-18T19:14:36.441024,13.17649923,.0001873,87.9133,5.5586,78.4274,281.7067,0,U,51644,999,21388,.13834E-3,.67E-6,0
ONEWEB-0456,2022-012AA,2026-06-18T20:53:06.761760,13.10491713,.0001623,87.8842,35.9186,81.4914,278.6397,0,U,51646,999,20956,.14291E-1,.5013E-4,0
ONEWEB-0457,2022-012AB,2026-06-18T14:50:06.285120,13.10327791,.0002222,87.8838,35.9865,87.3122,272.8260,0,U,51647,999,20953,-.95927E-2,-.3333E-4,0
ONEWEB-0458,2022-012AC,2026-06-18T20:51:06.067008,13.10369214,.0001784,87.8835,35.9246,76.5152,283.6174,0,U,51648,999,20952,-.35725E-3,-.112E-5,0
ONEWEB-0461,2022-012AD,2026-06-18T14:18:09.370656,13.17648160,.000196,87.9141,5.5768,90.3128,269.8228,0,U,51649,999,21407,.25554E-4,.23E-6,0
ONEWEB-0463,2022-012AE,2026-06-18T19:19:28.968096,13.17649012,.0001975,87.9132,5.5577,91.0375,269.0983,0,U,51650,999,21388,-.12836E-4,.8E-7,0
ONEWEB-0464,2022-012AF,2026-06-18T20:46:40.113120,13.10263528,.0001887,87.8821,35.9468,75.5125,284.6211,0,U,51651,999,20954,-.1792E-1,-.6229E-4,0
ONEWEB-0468,2022-012AG,2026-06-18T20:55:31.518048,13.10488487,.0001561,87.8834,35.9398,77.2581,282.8721,0,U,51652,999,20952,.12134E-1,.4257E-4,0
ONEWEB-0473,2022-012AH,2026-06-18T15:04:43.939776,13.10297195,.0001944,87.8824,35.9893,77.8916,282.2429,0,U,51653,999,20949,-.1516E-1,-.5271E-4,0
ONEWEB-0474,2022-012AJ,2026-06-18T14:52:43.211712,13.10320365,.0001654,87.8834,35.9767,77.7792,282.3520,0,U,51654,999,20948,-.1029E-1,-.3575E-4,0
ONEWEB-0475,2022-012AK,2026-06-18T19:36:29.408256,13.17648699,.0001447,87.9132,5.5483,70.3337,289.7950,0,U,51655,999,21390,.17506E-5,.14E-6,0
ONEWEB-0490,2022-138A,2026-06-18T15:37:19.645248,13.19725271,.0001722,87.9179,304.6752,102.5237,257.6088,0,U,54113,999,17702,.53552E-5,.15E-6,0
ONEWEB-0492,2022-138B,2026-06-18T18:02:54.056256,13.19725921,.0001843,87.9172,304.6564,107.2700,252.8635,0,U,54114,999,17704,-.22703E-3,-.78E-6,0
ONEWEB-0495,2022-138C,2026-06-18T15:41:52.566432,13.19724950,.0001313,87.9171,304.6782,111.5351,248.5922,0,U,54115,999,17701,.35067E-4,.27E-6,0
