ONEWEB-0423             
1 51627U 22012F   26169.81531595 -.00000006  00000+0 -48258-4 0  9997
2 51627  87.9133   5.5399 0001909  85.0865 275.0484 13.17650637213911
ONEWEB-0425             
1 51628U 22012G   26169.86407069 -.00004346  00000+0 -12513-1 0  9994
2 51628  87.8826  35.9332 0002168  75.3292 284.8076 13.10262085209546
ONEWEB-0428             
1 51629U 22012H   26169.61492356 -.00002600  00000+0 -74912-2 0  9994
2 51629  87.8845  35.9890 0001883  81.7885 278.3456 13.10340270209474
ONEWEB-0431             
1 51630U 22012J   26169.89015549  .00004412  00000+0  12590-1 0  9995
2 51630  87.8853  35.9256 0001465 105.3734 254.7555 13.10415148209568
ONEWEB-0434             
1 51631U 22012K   26169.86755080 -.00007517  00000+0 -21621-1 0  9990
2 51631  87.8831  35.9568 0002640  69.3626 290.7785 13.10262776209546
ONEWEB-0435             
1 51632U 22012L   26169.87524194  .00004290  00000+0  12229-1 0  9999
2 51632  87.8823  35.9425 0001392  84.7931 275.3355 13.10473869209531
ONEWEB-0436             
1 51633U 22012M   26169.50312954 -.00000048  00000+0 -15679-3 0  9992
2 51633  87.9140   5.5839 0001644  90.7500 269.3820 13.17648926213851
ONEWEB-0438             
1 51634U 22012N   26169.85905516 -.00006075  00000+0 -17470-1 0  9998
2 51634  87.8826  35.9480 0001850  79.5574 280.5761 13.10291374209562
ONEWEB-0439             
1 51635U 22012P   26169.86240946 -.00004371  00000+0 -12583-1 0  9996
2 51635  87.8824  35.9349 0001931  81.2072 278.9274 13.10270179209546
ONEWEB-0442             
1 51636U 22012Q   26169.49554155 -.00000026  00000+0 -10037-3 0  9993
2 51636  87.9130   5.6181 0002388  81.3877 278.7525 13.17649145213842
ONEWEB-0443             
1 51637U 22012R   26169.81868221  .00000018  00000+0  13263-4 0  9996
2 51637  87.9131   5.5547 0001723  77.2586 282.8738 13.17649997213939
ONEWEB-0444             
1 51638U 22012S   26169.85237309 -.00002207  00000+0 -63664-2 0  9990
2 51638  87.8830  35.9355 0001781  75.2572 284.8753 13.10303274209556
ONEWEB-0445             
1 51639U 22012T   26169.87356725  .00004169  00000+0  11883-1 0  9999
2 51639  87.8835  35.9202 0001988  88.6691 271.4664 13.10482352209561
ONEWEB-0446             
1 51640U 22012U   26169.62160726 -.00003827  00000+0 -11012-1 0  9994
2 51640  87.8834  35.9982 0001874  86.5158 273.6184 13.10317074209510
ONEWEB-0448             
1 51641U 22012V   26169.85571606 -.00001786  00000+0 -51599-2 0  9990
2 51641  87.8820  35.9478 0001827  83.4416 276.6919 13.10283129209519
ONEWEB-0449             
1 51642U 22012W   26169.86073635 -.00002838  00000+0 -81827-2 0  9997
2 51642  87.8829  35.9327 0002110  74.0934 286.0426 13.10266764209524
ONEWEB-0451             
1 51643U 22012X   26169.80351058  .00000014  00000+0  34736-5 0  9992
2 51643  87.9143   5.5217 0001995  82.5481 277.5877 13.17649551213871
ONEWEB-0452             
1 51644U 22012Y   26169.80181066  .00000067  00000+0  13834-3 0  9995
2 51644  87.9133   5.5586 0001873  78.4274 281.7067 13.17649923213881
ONEWEB-0456             
1 51646U 22012AA  26169.87021715  .00005013  00000+0  14291-1 0  9990
2 51646  87.8842  35.9186 0001623  81.4914 278.6397 13.10491713209566
ONEWEB-0457             
1 51647U 22012AB  26169.61812830 -.00003333  00000+0 -95927-2 0  9990
2 51647  87.8838  35.9865 0002222  87.3122 272.8260 13.10327791209534
ONEWEB-0458             
1 51648U 22012AC  26169.86882022 -.00000112  00000+0 -35725-3 0  9991
2 51648  87.8835  35.9246 0001784  76.5152 283.6174 13.10369214209529
ONEWEB-0461             
1 51649U 22012AD  26169.59594179  .00000023  00000+0  25554-4 0  9994
2 51649  87.9141   5.5768 0001960  90.3128 269.8228 13.17648160214075
ONEWEB-0463             
1 51650U 22012AE  26169.80519639  .00000008  00000+0 -12836-4 0  9991
2 51650  87.9132   5.5577 0001975  91.0375 269.0983 13.17649012213888
ONEWEB-0464             
1 51651U 22012AF  26169.86574205 -.00006229  00000+0 -17920-1 0  9996
2 51651  87.8821  35.9468 0001887  75.5125 284.6211 13.10263528209543
ONEWEB-0468             
1 51652U 22012AG  26169.87189257  .00004257  00000+0  12134-1 0  9996
2 51652  87.8834  35.9398 0001561  77.2581 282.8721 13.10488487209521
ONEWEB-0473             
1 51653U 22012AH  26169.62828634 -.00005271  00000+0 -15160-1 0  9990
2 51653  87.8824  35.9893 0001944  77.8916 282.2429 13.10297195209493
ONEWEB-0474             
1 51654U 22012AJ  26169.61994458 -.00003575  00000+0 -10290-1 0  9992
2 51654  87.8834  35.9767 0001654  77.7792 282.3520 13.10320365209482
ONEWEB-0475             
1 51655U 22012AK  26169.81700704  .00000014  00000+0  17506-5 0  9998
2 51655  87.9132   5.5483 0001447  70.3337 289.7950 13.17648699213907
ONEWEB-0490             
1 54113U 22138A   26169.65092182  .00000015  00000+0  53552-5 0  9997
2 54113  87.9179 304.6752 0001722 102.5237 257.6088 13.19725271177027
ONEWEB-0492             
1 54114U 22138B   26169.75201454 -.00000078  00000+0 -22703-3 0  9996
2 54114  87.9172 304.6564 0001843 107.2700 252.8635 13.19725921177042
ONEWEB-0495             
1 54115U 22138C   26169.65408063  .00000027  00000+0  35067-4 0  9991
2 54115  87.9171 304.6782 0001313 111.5351 248.5922 13.19724950177015
